{"type": "FeatureCollection", "features": [ {"type": "Feature", "properties": {"norad_id": 30558, "name": "FENGYUN 1C DEB", "group": "fengyun-1c-debris", "lat": -36.88461752015607, "lon": -45.81048078902059, "alt_km": 854.3823883103369, "timestamp": "2025-12-27T15:27:11.467932+00:00", "meta": {"OBJECT_NAME": "FENGYUN 1C DEB", "OBJECT_ID": "1999-025AKY", "EPOCH": "2025-12-18T02:35:59.256672", "MEAN_MOTION": 13.28535877, "ECCENTRICITY": 0.04271131, "INCLINATION": 99.4659, "RA_OF_ASC_NODE": 132.6231, "ARG_OF_PERICENTER": 260.3076, "MEAN_ANOMALY": 94.9567, "EPHEMERIS_TYPE": 0, "CLASSIFICATION_TYPE": "U", "NORAD_CAT_ID": 30558, "ELEMENT_SET_NO": 999, "REV_AT_EPOCH": 90829, "BSTAR": 0.0032374201, "MEAN_MOTION_DOT": 2.396e-05, "MEAN_MOTION_DDOT": 0}, "tle": {"line1": "1 30558U 99025AKY 25352.10832473  .00002396  00000+0  32374-2 0  9991", "line2": "2 30558  99.4659 132.6231 0427113 260.3076  94.9567 13.28535877908292"}}, "geometry": {"type": "Point", "coordinates": [-45.81048078902059, -36.88461752015607]}}, {"type": "Feature", "properties": {"norad_id": 30560, "name": "FENGYUN 1C DEB", "group": "fengyun-1c-debris", "lat": -50.09734191233647, "lon": 5.510859158993342, "alt_km": 906.0482494833595, "timestamp": "2025-12-27T15:27:11.467942+00:00", "meta": {"OBJECT_NAME": "FENGYUN 1C DEB", "OBJECT_ID": "1999-025ALA", "EPOCH": "2025-12-26T23:00:42.363360", "MEAN_MOTION": 14.17041583, "ECCENTRICITY": 0.0115564, "INCLINATION": 98.6645, "RA_OF_ASC_NODE": 354.3365, "ARG_OF_PERICENTER": 170.7845, "MEAN_ANOMALY": 244.7885, "EPHEMERIS_TYPE": 0, "CLASSIFICATION_TYPE": "U", "NORAD_CAT_ID": 30560, "ELEMENT_SET_NO": 999, "REV_AT_EPOCH": 97570, "BSTAR": 0.00027206, "MEAN_MOTION_DOT": 5.42e-06, "MEAN_MOTION_DDOT": 0}, "tle": {"line1": "1 30560U 99025ALA 25360.95882365  .00000542  00000+0  27206-3 0  9991", "line2": "2 30560  98.6645 354.3365 0115564 170.7845 244.7885 14.17041583975707"}}, "geometry": {"type": "Point", "coordinates": [5.510859158993342, -50.09734191233647]}}, {"type": "Feature", "properties": {"norad_id": 30561, "name": "FENGYUN 1C DEB", "group": "fengyun-1c-debris", "lat": 76.68271763531304, "lon": -136.19553539373857, "alt_km": 808.7802535280407, "timestamp": "2025-12-27T15:27:11.467952+00:00", "meta": {"OBJECT_NAME": "FENGYUN 1C DEB", "OBJECT_ID": "1999-025ALB", "EPOCH": "2025-12-27T05:24:18.612288", "MEAN_MOTION": 14.11288925, "ECCENTRICITY": 0.00607094, "INCLINATION": 98.7248, "RA_OF_ASC_NODE": 2.9512, "ARG_OF_PERICENTER": 73.5136, "MEAN_ANOMALY": 60.331, "EPHEMERIS_TYPE": 0, "CLASSIFICATION_TYPE": "U", "NORAD_CAT_ID": 30561, "ELEMENT_SET_NO": 999, "REV_AT_EPOCH": 97182, "BSTAR": 0.00034555105, "MEAN_MOTION_DOT": 5.93e-06, "MEAN_MOTION_DDOT": 0}, "tle": {"line1": "1 30561U 99025ALB 25361.22521542  .00000593  00000+0  34555-3 0  9991", "line2": "2 30561  98.7248   2.9512 0060709  73.5136  60.3310 14.11288925971822"}}, "geometry": {"type": "Point", "coordinates": [-136.19553539373857, 76.68271763531304]}}, {"type": "Feature", "properties": {"norad_id": 30562, "name": "FENGYUN 1C DEB", "group": "fengyun-1c-debris", "lat": -60.0831080280465, "lon": -126.22633336635694, "alt_km": 780.8065036700782, "timestamp": "2025-12-27T15:27:11.467963+00:00", "meta": {"OBJECT_NAME": "FENGYUN 1C DEB", "OBJECT_ID": "1999-025ALC", "EPOCH": "2025-12-27T04:19:10.739424", "MEAN_MOTION": 14.23154911, "ECCENTRICITY": 0.00601316, "INCLINATION": 98.7627, "RA_OF_ASC_NODE": 68.8602, "ARG_OF_PERICENTER": 223.8172, "MEAN_ANOMALY": 161.8089, "EPHEMERIS_TYPE": 0, "CLASSIFICATION_TYPE": "U", "NORAD_CAT_ID": 30562, "ELEMENT_SET_NO": 999, "REV_AT_EPOCH": 97205, "BSTAR": 0.0018429937, "MEAN_MOTION_DOT": 4.198e-05, "MEAN_MOTION_DDOT": 0}, "tle": {"line1": "1 30562U 99025ALC 25361.17998541  .00004198  00000+0  18430-2 0  9991", "line2": "2 30562  98.7627  68.8602 0060131 223.8172 161.8089 14.23154911972050"}}, "geometry": {"type": "Point", "coordinates": [-126.22633336635694, -60.0831080280465]}}, {"type": "Feature", "properties": {"norad_id": 30564, "name": "FENGYUN 1C DEB", "group": "fengyun-1c-debris", "lat": -36.116862657979475, "lon": 19.49284268211102, "alt_km": 936.6133886969674, "timestamp": "2025-12-27T15:27:11.467974+00:00", "meta": {"OBJECT_NAME": "FENGYUN 1C DEB", "OBJECT_ID": "1999-025ALE", "EPOCH": "2025-12-27T00:30:42.257088", "MEAN_MOTION": 14.05788461, "ECCENTRICITY": 0.02029168, "INCLINATION": 98.796, "RA_OF_ASC_NODE": 12.4011, "ARG_OF_PERICENTER": 78.8935, "MEAN_ANOMALY": 337.8015, "EPHEMERIS_TYPE": 0, "CLASSIFICATION_TYPE": "U", "NORAD_CAT_ID": 30564, "ELEMENT_SET_NO": 999, "REV_AT_EPOCH": 96496, "BSTAR": 0.00061974704, "MEAN_MOTION_DOT": 1.177e-05, "MEAN_MOTION_DDOT": 0}, "tle": {"line1": "1 30564U 99025ALE 25361.02132242  .00001177  00000+0  61975-3 0  9992", "line2": "2 30564  98.7960  12.4011 0202916  78.8935 337.8015 14.05788461964963"}}, "geometry": {"type": "Point", "coordinates": [19.49284268211102, -36.116862657979475]}}, {"type": "Feature", "properties": {"norad_id": 30565, "name": "FENGYUN 1C DEB", "group": "fengyun-1c-debris", "lat": -13.132095310660091, "lon": -127.03075176941657, "alt_km": 776.5779375072443, "timestamp": "2025-12-27T15:27:11.467984+00:00", "meta": {"OBJECT_NAME": "FENGYUN 1C DEB", "OBJECT_ID": "1999-025ALF", "EPOCH": "2025-12-26T14:06:30.163104", "MEAN_MOTION": 14.10029395, "ECCENTRICITY": 0.0142529, "INCLINATION": 98.4526, "RA_OF_ASC_NODE": 229.9885, "ARG_OF_PERICENTER": 317.025, "MEAN_ANOMALY": 71.3981, "EPHEMERIS_TYPE": 0, "CLASSIFICATION_TYPE": "U", "NORAD_CAT_ID": 30565, "ELEMENT_SET_NO": 999, "REV_AT_EPOCH": 96122, "BSTAR": 0.0019542, "MEAN_MOTION_DOT": 3.75e-05, "MEAN_MOTION_DDOT": 0}, "tle": {"line1": "1 30565U 99025ALF 25360.58784911  .00003750  00000+0  19542-2 0  9990", "line2": "2 30565  98.4526 229.9885 0142529 317.0250  71.3981 14.10029395961222"}}, "geometry": {"type": "Point", "coordinates": [-127.03075176941657, -13.132095310660091]}}, {"type": "Feature", "properties": {"norad_id": 30566, "name": "FENGYUN 1C DEB", "group": "fengyun-1c-debris", "lat": 19.01310841032134, "lon": 47.376569102377225, "alt_km": 879.303511107837, "timestamp": "2025-12-27T15:27:11.467994+00:00", "meta": {"OBJECT_NAME": "FENGYUN 1C DEB", "OBJECT_ID": "1999-025ALG", "EPOCH": "2025-12-26T09:05:12.083712", "MEAN_MOTION": 14.11750619, "ECCENTRICITY": 0.00683669, "INCLINATION": 99.2155, "RA_OF_ASC_NODE": 49.2843, "ARG_OF_PERICENTER": 144.7208, "MEAN_ANOMALY": 288.3615, "EPHEMERIS_TYPE": 0, "CLASSIFICATION_TYPE": "U", "NORAD_CAT_ID": 30566, "ELEMENT_SET_NO": 999, "REV_AT_EPOCH": 96575, "BSTAR": 0.0015274237, "MEAN_MOTION_DOT": 2.799e-05, "MEAN_MOTION_DDOT": 0}, "tle": {"line1": "1 30566U 99025ALG 25360.37861208  .00002799  00000+0  15274-2 0  9993", "line2": "2 30566  99.2155  49.2843 0068366 144.7208 288.3615 14.11750619965758"}}, "geometry": {"type": "Point", "coordinates": [47.376569102377225, 19.01310841032134]}}, {"type": "Feature", "properties": {"norad_id": 30567, "name": "FENGYUN 1C DEB", "group": "fengyun-1c-debris", "lat": -6.661225992368299, "lon": 170.9063977549938, "alt_km": 805.256746794872, "timestamp": "2025-12-27T15:27:11.468004+00:00", "meta": {"OBJECT_NAME": "FENGYUN 1C DEB", "OBJECT_ID": "1999-025ALH", "EPOCH": "2025-12-25T12:02:24.751104", "MEAN_MOTION": 14.08910336, "ECCENTRICITY": 0.0109355, "INCLINATION": 98.7765, "RA_OF_ASC_NODE": 349.8541, "ARG_OF_PERICENTER": 153.2846, "MEAN_ANOMALY": 333.145, "EPHEMERIS_TYPE": 0, "CLASSIFICATION_TYPE": "U", "NORAD_CAT_ID": 30567, "ELEMENT_SET_NO": 999, "REV_AT_EPOCH": 96953, "BSTAR": 0.00032264, "MEAN_MOTION_DOT": 5.47e-06, "MEAN_MOTION_DDOT": 0}, "tle": {"line1": "1 30567U 99025ALH 25359.50167536  .00000547  00000+0  32264-3 0  9998", "line2": "2 30567  98.7765 349.8541 0109355 153.2846 333.1450 14.08910336969537"}}, "geometry": {"type": "Point", "coordinates": [170.9063977549938, -6.661225992368299]}}, {"type": "Feature", "properties": {"norad_id": 30568, "name": "FENGYUN 1C DEB", "group": "fengyun-1c-debris", "lat": 37.34255269406936, "lon": 165.97205635182266, "alt_km": 708.8329775783659, "timestamp": "2025-12-27T15:27:11.468015+00:00", "meta": {"OBJECT_NAME": "FENGYUN 1C DEB", "OBJECT_ID": "1999-025ALJ", "EPOCH": "2025-12-27T06:11:34.864224", "MEAN_MOTION": 14.55551926, "ECCENTRICITY": 0.00156501, "INCLINATION": 98.9424, "RA_OF_ASC_NODE": 172.4591, "ARG_OF_PERICENTER": 150.503, "MEAN_ANOMALY": 26.9977, "EPHEMERIS_TYPE": 0, "CLASSIFICATION_TYPE": "U", "NORAD_CAT_ID": 30568, "ELEMENT_SET_NO": 999, "REV_AT_EPOCH": 97870, "BSTAR": 0.0037693072, "MEAN_MOTION_DOT": 0.00016439, "MEAN_MOTION_DDOT": 0}, "tle": {"line1": "1 30568U 99025ALJ 25361.25804241  .00016439  00000+0  37693-2 0  9992", "line2": "2 30568  98.9424 172.4591 0015650 150.5030  26.9977 14.55551926978704"}}, "geometry": {"type": "Point", "coordinates": [165.97205635182266, 37.34255269406936]}}, {"type": "Feature", "properties": {"norad_id": 30569, "name": "FENGYUN 1C DEB", "group": "fengyun-1c-debris", "lat": -34.63036867741222, "lon": 147.86630600676756, "alt_km": 651.8440011426583, "timestamp": "2025-12-27T15:27:11.468025+00:00", "meta": {"OBJECT_NAME": "FENGYUN 1C DEB", "OBJECT_ID": "1999-025ALK", "EPOCH": "2025-12-26T21:41:40.570656", "MEAN_MOTION": 14.74285318, "ECCENTRICITY": 0.0005977, "INCLINATION": 98.7372, "RA_OF_ASC_NODE": 140.9721, "ARG_OF_PERICENTER": 33.87, "MEAN_ANOMALY": 326.2886, "EPHEMERIS_TYPE": 0, "CLASSIFICATION_TYPE": "U", "NORAD_CAT_ID": 30569, "ELEMENT_SET_NO": 999, "REV_AT_EPOCH": 98415, "BSTAR": 0.0041241, "MEAN_MOTION_DOT": 0.00027341, "MEAN_MOTION_DDOT": 0}, "tle": {"line1": "1 30569U 99025ALK 25360.90394179  .00027341  00000+0  41241-2 0  9996", "line2": "2 30569  98.7372 140.9721 0005977  33.8700 326.2886 14.74285318984159"}}, "geometry": {"type": "Point", "coordinates": [147.86630600676756, -34.63036867741222]}}]}